SL-16 R/B               
1 24298U 96051B   26168.81037573  .00000110  00000+0  86422-4 0  9990
2 24298  70.7641 323.3296 0015519 335.9552  24.0842 14.12446060535789
ORBVIEW 2 (SEASTAR)     
1 24883U 97037A   26168.43817018  .00000154  00000+0  69582-4 0  9999
2 24883  98.8687 335.4641 0003198 115.6178 244.5338 14.35553350522786
SL-16 R/B               
1 25400U 98043G   26168.78390235  .00000030  00000+0  31330-4 0  9991
2 25400  98.8364 122.9482 0010944  84.7886 275.4542 14.26068670453256
SL-16 R/B               
1 25407U 98045B   26168.80096402 -.00000230  00000+0 -91920-4 0  9997
2 25407  71.0117 331.0387 0009364 240.8794 119.1393 14.16202964441278
ISS (ZARYA)             
1 25544U 98067A   26168.83452610  .00010577  00000+0  19787-3 0  9996
2 25544  51.6335 296.8886 0004753 198.5228 161.5588 15.49287853571858
CZ-4B R/B               
1 25732U 99025C   26168.64183771  .00000027  00000+0  33616-4 0  9995
2 25732  98.6483 210.4689 0038046  58.4012  53.4255 14.18283596402333
OKEAN-O                 
1 25860U 99039A   26168.75307220  .00000472  00000+0  68578-4 0  9990
2 25860  97.9316 227.5445 0001585  72.3210 287.8175 14.80467841449199
SL-16 R/B               
1 25861U 99039B   26168.77431979  .00000350  00000+0  51049-4 0  9992
2 25861  97.9837 227.6356 0013464 294.7752  65.2059 14.81845612451683
DELTA 2 R/B             
1 25876U 99041E   26168.45855435  .00000455  00000+0  11122-3 0  9996
2 25876  51.7654 262.7127 0500843 282.8187  71.7250 14.12016533377129
HELIOS 1B               
1 25977U 99064A   26168.64934860  .00001047  00000+0  12050-3 0  9993
2 25977  98.1614  73.8025 0002499  90.6257 269.5245 14.88007501700126
TERRA                   
1 25994U 99068A   26168.84974205  .00000309  00000+0  71898-4 0  9991
2 25994  97.9456 218.3697 0001631 187.1264 288.8317 14.61103577409709
SL-16 R/B               
1 26070U 00006B   26168.63039836 -.00000010  00000+0  19235-4 0  9997
2 26070  71.0020 247.6933 0015549  22.3684 337.8113 14.15834058362703
TITAN 4B R/B            
1 26474U 00047B   26168.78879561  .00002511  00000+0  15802-3 0  9995
2 26474  67.9882 118.8799 0045781 286.4875  73.1247 15.10200614408021
ENVISAT                 
1 27386U 02009A   26168.80444059  .00000060  00000+0  33448-4 0  9995
2 27386  98.3834 120.1091 0001347  88.7106 327.4925 14.39064900273574
IDEFIX & ARIANE 42P R/B 
1 27422U 02021B   26168.82874127  .00000161  00000+0  77669-4 0  9990
2 27422  98.5942 106.3049 0010598 251.8310 108.1719 14.31082352258340
AQUA                    
1 27424U 02022A   26168.80698557  .00000587  00000+0  12652-3 0  9994
2 27424  98.4277 138.1021 0001081  53.5889   7.8988 14.62158874283360
CZ-4B R/B               
1 27432U 02024C   26168.74522410  .00000024  00000+0  34968-4 0  9993
2 27432  98.8700 221.5618 0051210  98.7014  12.1074 14.14564497243385
MIDORI II (ADEOS-II)    
1 27597U 02056A   26168.76807949  .00000187  00000+0  91200-4 0  9997
2 27597  98.7878 128.0328 0002205  76.4223 283.7204 14.29349830224597
H-2A R/B                
1 27601U 02056E   26168.77964263  .00000141  00000+0  64190-4 0  9995
2 27601  98.3312 125.4325 0069208 222.7823 199.3616 14.33822214228453
CZ-4B R/B               
1 28059U 03049C   26168.50629018  .00000214  00000+0  60908-4 0  9997
2 28059  98.6896 167.3655 0046953 287.6003  72.0068 14.55100318201114
CZ-2C R/B               
1 28222U 04012C   26168.73051000  .00089981  00000+0  50237-3 0  9996
2 28222  97.7072 244.4574 0009441 281.7623  78.2584 15.79076880219981
SL-16 R/B               
1 28353U 04021B   26168.79769235 -.00000236  00000+0 -98110-4 0  9994
2 28353  71.0007  22.4079 0007251 254.1668 105.8655 14.14608106136998
CZ-4B R/B               
1 28415U 04035C   26168.65561125  .00006110  00000+0  20620-3 0  9996
2 28415  97.3361 201.7238 0029826 336.2795  23.7069 15.30632117195197
CZ-2C R/B               
1 28480U 04046B   26168.75244483  .00000057  00000+0  36708-4 0  9995
2 28480  98.1945  77.4980 0138513 218.5870 140.5350 14.27026587122776
ARIANE 5 R/B            
1 28499U 04049H   26168.46704358  .00000499  00000+0  61420-4 0  9997
2 28499  98.2720 340.7306 0084480  28.5326 332.0474 14.85449367160602
CZ-2D R/B               
1 28738U 05024B   26168.85684699  .00051641  00000+0  43621-3 0  9992
2 28738  97.3481 188.3185 0003275  52.3725 307.7834 15.69618732155446
ALOS (DAICHI)           
1 28931U 06002A   26168.83924324  .00000853  00000+0  15036-3 0  9992
2 28931  98.1323 124.4045 0001429  56.9447 303.1896 14.70051683 88193
H-2A R/B                
1 28932U 06002B   26168.51594132  .00005813  00000+0  28042-3 0  9990
2 28932  98.2567 324.3741 0049597 261.1521  98.4093 15.18063600109574
RESURS-DK 1             
1 29228U 06021A   26168.76249632  .00001758  00000+0  10480-3 0  9990
2 29228  69.9330 338.0639 0006884 291.2664  68.7767 15.13220077102667
CZ-4B R/B               
1 29507U 06046C   26168.64841823  .00003037  00000+0  15196-3 0  9995
2 29507  97.5449 213.2542 0030996 281.0330  78.7418 15.17786742 75203
CZ-2C R/B               
1 31114U 07010B   26168.76441020  .00000065  00000+0  48627-4 0  9996
2 31114  98.4100 277.0870 0058985   4.4540 355.7151 14.20276284993922
